[{"OBJECT_NAME":"SAUDISAT 4","OBJECT_ID":"2014-033G","EPOCH":"2026-03-09T23:14:52.668960","MEAN_MOTION":14.79390687,"ECCENTRICITY":0.00457103,"INCLINATION":97.7413,"RA_OF_ASC_NODE":218.6273,"ARG_OF_PERICENTER":37.8064,"MEAN_ANOMALY":322.6344,"EPHEMERIS_TYPE":0,"CLASSIFICATION_TYPE":"U","NORAD_CAT_ID":40016,"ELEMENT_SET_NO":999,"REV_AT_EPOCH":63140,"BSTAR":0.00014306526,"MEAN_MOTION_DOT":1.033e-5,"MEAN_MOTION_DDOT":0},{"OBJECT_NAME":"CZ-6A DEB","OBJECT_ID":"2022-151ST","EPOCH":"2026-03-09T03:25:45.880032","MEAN_MOTION":14.58390972,"ECCENTRICITY":0.00923159,"INCLINATION":98.6225,"RA_OF_ASC_NODE":121.4968,"ARG_OF_PERICENTER":255.1718,"MEAN_ANOMALY":103.9239,"EPHEMERIS_TYPE":0,"CLASSIFICATION_TYPE":"U","NORAD_CAT_ID":54954,"ELEMENT_SET_NO":999,"REV_AT_EPOCH":17500,"BSTAR":0.0018568169,"MEAN_MOTION_DOT":9.08e-5,"MEAN_MOTION_DDOT":0}]
